OBJECT_NAME,OBJECT_ID,EPOCH,MEAN_MOTION,ECCENTRICITY,INCLINATION,RA_OF_ASC_NODE,ARG_OF_PERICENTER,MEAN_ANOMALY,EPHEMERIS_TYPE,CLASSIFICATION_TYPE,NORAD_CAT_ID,ELEMENT_SET_NO,REV_AT_EPOCH,BSTAR,MEAN_MOTION_DOT,MEAN_MOTION_DDOT
STARLINK-1338,2020-025B,2026-07-13T10:47:44.721024,15.75046161,.0003027,53.0394,187.5535,67.5581,292.5758,0,U,45532,999,34509,.31851E-3,.48066E-3,0
STARLINK-1350,2020-025E,2026-07-12T21:45:25.946784,15.40156262,.00022442,53.0680,163.6467,72.9183,287.2067,0,U,45535,999,34542,.95592249E-3,.38717E-3,0
STARLINK-1362,2020-025H,2026-07-13T12:27:35.080992,15.40477639,.0005377,53.1543,232.2837,346.0102,14.0753,0,U,45538,999,34450,-.38692E-3,-.16301E-3,0
STARLINK-1368,2020-025K,2026-07-13T09:33:57.446784,15.40751142,.0003883,53.1539,233.1717,344.7686,15.3202,0,U,45540,999,34447,.59248E-3,.24277E-3,0
STARLINK-1371,2020-025M,2026-07-13T07:32:17.280960,15.71950152,.0002534,53.0399,198.8693,60.1976,299.9293,0,U,45542,999,34492,.30297E-3,.3991E-3,0
STARLINK-1372,2020-025N,2026-07-13T11:26:20.296320,15.41197515,.000412,53.1545,232.1883,337.9153,22.1674,0,U,45543,999,34359,.55369E-3,.23E-3,0
STARLINK-1373,2020-025P,2026-07-13T09:45:06.744384,15.73734679,.0002964,53.0418,193.0364,42.1007,318.0238,0,U,45544,999,34501,.32363E-3,.46118E-3,0
STARLINK-1327,2020-025AA,2026-07-13T07:37:46.094304,15.75718785,.0002409,53.0359,170.5776,84.0754,276.0539,0,U,45555,999,34531,.29847E-3,.46343E-3,0
STARLINK-1356,2020-025AK,2026-07-13T11:00:39.062880,15.68245890,.0004662,53.0392,184.4175,49.5229,310.6192,0,U,45564,999,34513,.28952E-3,.3259E-3,0
STARLINK-1357,2020-025AL,2026-07-13T00:00:48.591360,15.73637143,.00012184,53.0417,142.1643,212.3622,147.7321,0,U,45565,999,34569,.39372681E-3,.56065E-3,0
STARLINK-1361,2020-025AN,2026-07-13T11:29:01.130784,15.72046764,.0002685,53.0382,182.1596,77.4869,282.6449,0,U,45567,999,34517,.29876E-3,.39509E-3,0
STARLINK-1376,2020-025AR,2026-07-13T09:05:57.558624,15.41674956,.0002356,53.1541,208.9434,350.0425,10.0534,0,U,45570,999,34481,.7469E-3,.31704E-3,0
STARLINK-1320,2020-025AT,2026-07-13T01:29:07.717632,16.02155840,.00024315,53.0347,75.1813,146.1798,213.9387,0,U,45572,999,34664,.55786341E-3,.329148E-2,.58270702E-4
STARLINK-1321,2020-025AU,2026-07-12T09:29:45.544128,15.72497728,.00018462,53.0383,171.2926,84.3615,275.7613,0,U,45573,999,34492,.32008671E-3,.43215E-3,0
STARLINK-1331,2020-025AZ,2026-07-13T12:06:39.060000,15.72291369,.0002059,53.0430,172.7683,76.3984,283.7263,0,U,45578,999,34531,.29382E-3,.39251E-3,0
STARLINK-1333,2020-025BB,2026-07-13T08:48:55.920096,15.38666095,.00038,53.1527,211.2838,355.9351,4.1622,0,U,45580,999,34478,.13157E-2,.50963E-3,0
STARLINK-1335,2020-025BC,2026-07-13T08:35:29.908320,15.40173039,.0003585,53.1526,207.6141,333.6678,26.4145,0,U,45581,999,34482,.53174E-3,.21321E-3,0
STARLINK-1337,2020-025BD,2026-07-13T11:47:24.928800,15.80007844,.0001764,53.0403,159.9631,110.1788,249.9423,0,U,45582,999,34547,.32384E-3,.61184E-3,0
STARLINK-1347,2020-025BH,2026-07-13T06:01:14.619360,15.72571754,.0001604,53.0345,133.3611,74.8345,285.2850,0,U,45586,999,34582,.36411E-3,.49437E-3,0
STARLINK-1364,2020-025BL,2026-07-13T07:18:25.433856,15.73306286,.0004543,53.0389,169.6077,50.7127,309.4293,0,U,45589,999,34532,.32074E-3,.44866E-3,0
STARLINK-1365,2020-025BM,2026-07-13T07:35:47.805792,15.68427034,.0002876,53.0426,205.3692,53.3126,306.8154,0,U,45590,999,34484,.46075E-3,.52714E-3,0
STARLINK-1443,2020-035D,2026-07-13T10:21:28.067904,15.35251788,.0002473,53.1304,200.3560,46.9435,313.1775,0,U,45660,999,33801,.67997E-3,.23301E-3,0
STARLINK-1446,2020-035G,2026-07-13T03:39:34.220160,15.49719194,.00026589,53.0196,120.5025,16.0437,344.0654,0,U,45663,999,33908,.41574072E-3,.23081E-3,0
STARLINK-1448,2020-035J,2026-07-13T11:29:48.503040,15.77280883,.000218,53.0389,155.5997,98.9752,261.1514,0,U,45665,999,33861,.33857E-3,.56514E-3,0
STARLINK-1451,2020-035M,2026-07-13T10:49:12.874080,15.15806091,.000227,53.0486,215.6578,8.8945,351.2088,0,U,45668,999,33778,.73496E-3,.13926E-3,0
STARLINK-1452,2020-035N,2026-07-13T05:33:25.462080,15.64835601,.0006891,53.0213,134.7688,70.0820,290.0936,0,U,45669,999,33889,.35162E-3,.34581E-3,0
STARLINK-1453,2020-035P,2026-07-13T08:55:07.665600,15.78139406,.0001835,53.0358,116.2709,162.6046,197.5037,0,U,45670,999,33905,.40048E-3,.69712E-3,0
STARLINK-1454,2020-035Q,2026-07-13T00:17:43.159776,15.75639266,.00018044,53.0389,159.5715,84.4225,275.6999,0,U,45671,999,33851,.4254801E-3,.6626E-3,0
STARLINK-1456,2020-035S,2026-07-13T06:58:35.253120,15.71974619,.0001605,53.0388,153.4168,87.7302,272.3899,0,U,45673,999,33864,.35299E-3,.46683E-3,0
STARLINK-1458,2020-035U,2026-07-13T00:01:15.385728,15.63659423,.0004598,53.0429,171.7167,48.8518,311.2891,0,U,45675,999,33832,.15022143E-2,.144588E-2,0
