STARLINK-1338           
1 45532U 20025B   26194.44982316  .00048066  00000+0  31851-3 0  9991
2 45532  53.0394 187.5535 0003027  67.5581 292.5758 15.75046161345098
STARLINK-1350           
1 45535U 20025E   26193.90655031  .00038717  00000+0  95592-3 0  9999
2 45535  53.0680 163.6467 0002244  72.9183 287.2067 15.40156262345423
STARLINK-1362           
1 45538U 20025H   26194.51915603 -.00016301  00000+0 -38692-3 0  9999
2 45538  53.1543 232.2837 0005377 346.0102  14.0753 15.40477639344505
STARLINK-1368           
1 45540U 20025K   26194.39858156  .00024277  00000+0  59248-3 0  9996
2 45540  53.1539 233.1717 0003883 344.7686  15.3202 15.40751142344475
STARLINK-1371           
1 45542U 20025M   26194.31408890  .00039910  00000+0  30297-3 0  9999
2 45542  53.0399 198.8693 0002534  60.1976 299.9293 15.71950152344929
STARLINK-1372           
1 45543U 20025N   26194.47662380  .00023000  00000+0  55369-3 0  9993
2 45543  53.1545 232.1883 0004120 337.9153  22.1674 15.41197515343596
STARLINK-1373           
1 45544U 20025P   26194.40632806  .00046118  00000+0  32363-3 0  9991
2 45544  53.0418 193.0364 0002964  42.1007 318.0238 15.73734679345016
STARLINK-1327           
1 45555U 20025AA  26194.31789461  .00046343  00000+0  29847-3 0  9996
2 45555  53.0359 170.5776 0002409  84.0754 276.0539 15.75718785345319
STARLINK-1356           
1 45564U 20025AK  26194.45878545  .00032590  00000+0  28952-3 0  9998
2 45564  53.0392 184.4175 0004662  49.5229 310.6192 15.68245890345133
STARLINK-1357           
1 45565U 20025AL  26194.00056240  .00056065  00000+0  39373-3 0  9992
2 45565  53.0417 142.1643 0001218 212.3622 147.7321 15.73637143345690
STARLINK-1361           
1 45567U 20025AN  26194.47848531  .00039509  00000+0  29876-3 0  9998
2 45567  53.0382 182.1596 0002685  77.4869 282.6449 15.72046764345171
STARLINK-1376           
1 45570U 20025AR  26194.37913841  .00031704  00000+0  74690-3 0  9991
2 45570  53.1541 208.9434 0002356 350.0425  10.0534 15.41674956344818
STARLINK-1320           
1 45572U 20025AT  26194.06189488  .00329148  58271-4  55786-3 0  9996
2 45572  53.0347  75.1813 0002431 146.1798 213.9387 16.02155840346646
STARLINK-1321           
1 45573U 20025AU  26193.39566602  .00043215  00000+0  32009-3 0  9992
2 45573  53.0383 171.2926 0001846  84.3615 275.7613 15.72497728344927
STARLINK-1331           
1 45578U 20025AZ  26194.50461875  .00039251  00000+0  29382-3 0  9992
2 45578  53.0430 172.7683 0002059  76.3984 283.7263 15.72291369345315
STARLINK-1333           
1 45580U 20025BB  26194.36731389  .00050963  00000+0  13157-2 0  9994
2 45580  53.1527 211.2838 0003800 355.9351   4.1622 15.38666095344784
STARLINK-1335           
1 45581U 20025BC  26194.35798505  .00021321  00000+0  53174-3 0  9997
2 45581  53.1526 207.6141 0003585 333.6678  26.4145 15.40173039344821
STARLINK-1337           
1 45582U 20025BD  26194.49126075  .00061184  00000+0  32384-3 0  9991
2 45582  53.0403 159.9631 0001764 110.1788 249.9423 15.80007844345472
STARLINK-1347           
1 45586U 20025BH  26194.25086365  .00049437  00000+0  36411-3 0  9998
2 45586  53.0345 133.3611 0001604  74.8345 285.2850 15.72571754345826
STARLINK-1364           
1 45589U 20025BL  26194.30446104  .00044866  00000+0  32074-3 0  9990
2 45589  53.0389 169.6077 0004543  50.7127 309.4293 15.73306286345323
STARLINK-1365           
1 45590U 20025BM  26194.31652553  .00052714  00000+0  46075-3 0  9997
2 45590  53.0426 205.3692 0002876  53.3126 306.8154 15.68427034344845
STARLINK-1443           
1 45660U 20035D   26194.43157486  .00023301  00000+0  67997-3 0  9990
2 45660  53.1304 200.3560 0002473  46.9435 313.1775 15.35251788338019
STARLINK-1446           
1 45663U 20035G   26194.15247940  .00023081  00000+0  41574-3 0  9995
2 45663  53.0196 120.5025 0002658  16.0437 344.0654 15.49719194339086
STARLINK-1448           
1 45665U 20035J   26194.47903360  .00056514  00000+0  33857-3 0  9999
2 45665  53.0389 155.5997 0002180  98.9752 261.1514 15.77280883338618
STARLINK-1451           
1 45668U 20035M   26194.45084345  .00013926  00000+0  73496-3 0  9996
2 45668  53.0486 215.6578 0002270   8.8945 351.2088 15.15806091337787
STARLINK-1452           
1 45669U 20035N   26194.23154470  .00034581  00000+0  35162-3 0  9998
2 45669  53.0213 134.7688 0006891  70.0820 290.0936 15.64835601338893
STARLINK-1453           
1 45670U 20035P   26194.37161650  .00069712  00000+0  40048-3 0  9996
2 45670  53.0358 116.2709 0001835 162.6046 197.5037 15.78139406339052
STARLINK-1454           
1 45671U 20035Q   26194.01230509  .00066260  00000+0  42548-3 0  9990
2 45671  53.0389 159.5715 0001804  84.4225 275.6999 15.75639266338511
STARLINK-1456           
1 45673U 20035S   26194.29068580  .00046683  00000+0  35299-3 0  9992
2 45673  53.0388 153.4168 0001605  87.7302 272.3899 15.71974619338645
STARLINK-1458           
1 45675U 20035U   26194.00087252  .00144588  00000+0  15022-2 0  9994
2 45675  53.0429 171.7167 0004598  48.8518 311.2891 15.63659423338320
